STARLINK-6065           
1 56812U 23078AX  23164.91667824 -.00862015  00000+0 -58427-2 0  9992
2 56812  70.0031  14.9895 0003302 272.6763 288.8213 15.77029422  1307
STARLINK-6056           
1 56813U 23078AY  23164.91667824 -.00861974  00000+0 -58241-2 0  9990
2 56813  70.0027  14.9848 0003309 272.9404 291.7997 15.77099663  1309
STARLINK-6059           
1 56814U 23078AZ  23164.91667824 -.00865876  00000+0 -58578-2 0  9999
2 56814  70.0028  14.9865 0003329 273.1419 290.6766 15.77081673  1305
STARLINK-6057           
1 56815U 23078BA  23164.91667824 -.00862712  00000+0 -58242-2 0  9994
2 56815  70.0025  14.9833 0003341 273.6516 292.0191 15.77120033  1307
STARLINK-6067           
1 56816U 23078BB  23164.91667824 -.00862028  00000+0 -58218-2 0  9998
2 56816  70.0034  14.9851 0003319 271.8724 293.3294 15.77109956  1303
STARLINK-5982           
1 56817U 23078BC  23164.91667824 -.00862613  00000+0 -58524-2 0  9999
2 56817  70.0023  14.9890 0003285 272.3594 288.2103 15.77009524  1300
STARLINK-6028           
1 56818U 23078BD  23164.91667824 -.00863504  00000+0 -58270-2 0  9998
2 56818  70.0023  14.9834 0003376 272.8888 293.2372 15.77131501  1306
FALCON 9 DEB            
1 56819U 23078BE  23164.89356597  .06068786  42532-5  61891-3 0  9997
2 56819  69.9847  13.8169 0020988 160.0703 200.1351 16.36838076  2211
FALCON 9 DEB            
1 56820U 23078BF  23164.76218071  .06223725  43271-5  47837-3 0  9990
2 56820  69.9903  14.1676 0014708 167.5057 192.6542 16.39461609  2191
STARLINK-30119          
1 56823U 23079A   23164.91667824 -.00589937  00000+0 -41640-2 0  9993
2 56823  43.0036 157.5514 0002065 254.0678 153.6458 15.74751407  1302
STARLINK-30120          
1 56824U 23079B   23164.91667824 -.00587594  00000+0 -41454-2 0  9994
2 56824  43.0040 157.5508 0002217 256.6410 151.3304 15.74755220  1304
STARLINK-30084          
1 56825U 23079C   23164.91667824 -.00587787  00000+0 -41456-2 0  9991
2 56825  43.0038 157.5502 0002411 255.1412 153.0255 15.74760574  1300
STARLINK-30114          
1 56826U 23079D   23164.91667824 -.00585971  00000+0 -41305-2 0  9998
2 56826  43.0038 157.5491 0002831 253.1600 155.2173 15.74764694  1301
STARLINK-30151          
1 56827U 23079E   23164.91667824 -.00587628  00000+0 -41427-2 0  9995
2 56827  43.0040 157.5494 0002187 256.9774 151.6055 15.74771739  1302
STARLINK-30152          
1 56828U 23079F   23164.91667824 -.00524219  00000+0 -36791-2 0  9991
2 56828  43.0047 157.5490 0002088 268.9820 139.8639 15.74703440  1301
STARLINK-30139          
1 56829U 23079G   23164.91667824  .00373450  00000+0  11941-2 0  9999
2 56829  43.0043 157.0402 0003314 271.5050 340.2558 15.89315378  1969
STARLINK-30134          
1 56830U 23079H   23164.37415301  .00192068  00000+0  68706-3 0  9998
2 56830  43.0051 160.4604 0003397 279.6355  80.4135 15.87507415  2205
STARLINK-30128          
1 56832U 23079K   23164.91667824 -.00489768  00000+0 -19884-2 0  9999
2 56832  43.0046 157.1771 0001702 225.6469 331.9398 15.86414451  1967
STARLINK-30131          
1 56833U 23079L   23164.91667824 -.00591792  00000+0 -34381-2 0  9990
2 56833  43.0052 157.3479 0001640 227.7838 261.5497 15.79109221  1300
STARLINK-30069          
1 56834U 23079M   23164.91667824 -.00588283  00000+0 -41422-2 0  9996
2 56834  43.0041 157.5470 0002651 251.3901 158.2907 15.74797802  1300
STARLINK-30144          
1 56835U 23079N   23164.91667824 -.00585544  00000+0 -41212-2 0  9991
2 56835  43.0044 157.5466 0002309 259.5084 150.3444 15.74802797  1300
STARLINK-30142          
1 56836U 23079P   23164.91667824 -.00588434  00000+0 -41426-2 0  9990
2 56836  43.0046 157.5464 0001698 264.3128 145.7696 15.74809468  1303
STARLINK-30133          
1 56837U 23079Q   23164.91667824 -.00590042  00000+0 -41519-2 0  9992
2 56837  43.0044 157.5451 0002103 251.0886 159.3534 15.74821850  1305
STARLINK-30123          
1 56838U 23079R   23164.91667824 -.00586796  00000+0 -41286-2 0  9995
2 56838  43.0046 157.5458 0002274 262.1199 148.1524 15.74814259  1304
STARLINK-30076          
1 56839U 23079S   23164.91667824 -.00588464  00000+0 -41400-2 0  9998
2 56839  43.0049 157.5450 0001455 262.1360 148.5134 15.74826734  1302
STARLINK-30073          
1 56840U 23079T   23164.91667824  .00251499  00000+0  14074-2 0  9990
2 56840  43.0057 157.5206 0002569 241.5867 178.8416 15.77830416  1957
STARLINK-30078          
1 56841U 23079U   23164.91667824 -.00586064  00000+0 -41193-2 0  9994
2 56841  43.0045 157.5438 0002184 260.7889 150.2886 15.74835935  1304
STARLINK-30135          
1 56842U 23079V   23164.91667824 -.00591363  00000+0 -36317-2 0  9995
2 56842  43.0055 157.3506 0001084 259.2466 229.2039 15.77890433  1306
STARLINK-30137          
1 56843U 23079W   23164.91667824 -.00592574  00000+0 -36386-2 0  9997
2 56843  43.0054 157.3498 0001340 254.2520 234.4535 15.77895175  1304
STARLINK-30136          
1 56844U 23079X   23164.91667824 -.00592007  00000+0 -36341-2 0  9990
2 56844  43.0053 157.3491 0001321 260.1258 228.7768 15.77900008  1306
DRAGON CRS-28           
1 56845U 23080A   23164.50892816  .00012815  00000+0  22628-3 0  9995
2 56845  51.6401 346.7634 0005139  77.4807 282.6757 15.50724885401222
SZ-15 MODULE            
1 56873U 22162C   23164.07594828  .00025814  00000+0  32839-3 0  9998
2 56873  41.4844 180.9738 0006112   7.0812 353.0112 15.58751410  1351
LONGJIANG 3             
1 56874U 23082A   23164.81057977  .00011809  00000+0  49677-3 0  9999
2 56874  49.1316 242.5602 0006832 284.5638  75.4547 15.23700374   714
